start=new Date('2023-04-22T00:00:00.000Z').valueOf();
sats=[{"BSTAR":"0.00025782000000","ELEMENT_SET_NO":"999","EPOCH":"2023-04-21T21:45:53.992224","NORAD_CAT_ID":"53211","SITE":"AFWTR","REF_FRAME":"TEME","MEAN_ANOMALY":"259.7600","RA_OF_ASC_NODE":"173.7924","TIME_SYSTEM":"UTC","MEAN_MOTION_DDOT":"0.0000000000000","FILE":"3891716","APOAPSIS":"564.125","MEAN_MOTION":"15.01279405","RCS_SIZE":"LARGE","PERIOD":"95.918","MEAN_MOTION_DOT":"0.00003256","LAUNCH_DATE":"2022-07-22","CENTER_NAME":"EARTH","INCLINATION":"97.6546","ECCENTRICITY":"0.00016900","ARG_OF_PERICENTER":"100.3815","TLE_LINE1":"1 53211U 22084Y   23111.90687491  .00003256  00000-0  25782-3 0  9993","GP_ID":"230529577","SEMIMAJOR_AXIS":"6941.087","COUNTRY_CODE":"US","CLASSIFICATION_TYPE":"U","PERIAPSIS":"561.779","TLE_LINE2":"2 53211  97.6546 173.7924 0001690 100.3815 259.7600 15.01279405 41882","OBJECT_ID":"2022-084Y","REV_AT_EPOCH":"4188","EPHEMERIS_TYPE":"0","DECAY_DATE":null,"MEAN_ELEMENT_THEORY":"SGP4","OBJECT_NAME":"STARLINK-4419","OBJECT_TYPE":"PAYLOAD"},{"MEAN_ANOMALY":"263.0197","RA_OF_ASC_NODE":"173.3376","NORAD_CAT_ID":"53212","EPOCH":"2023-04-21T10:39:22.511520","ELEMENT_SET_NO":"999","BSTAR":"0.00004939300000","REF_FRAME":"TEME","SITE":"AFWTR","MEAN_MOTION":"15.01264684","TIME_SYSTEM":"UTC","APOAPSIS":"564.381","FILE":"3891529","MEAN_MOTION_DDOT":"0.0000000000000","INCLINATION":"97.6548","ECCENTRICITY":"0.00019930","ARG_OF_PERICENTER":"97.1254","CLASSIFICATION_TYPE":"U","GP_ID":"230498683","TLE_LINE1":"1 53212U 22084Z   23111.44401055  .00000576  00000-0  49393-4 0  9990","SEMIMAJOR_AXIS":"6941.132","COUNTRY_CODE":"US","RCS_SIZE":"LARGE","LAUNCH_DATE":"2022-07-22","CENTER_NAME":"EARTH","PERIOD":"95.919","MEAN_MOTION_DOT":"0.00000576","EPHEMERIS_TYPE":"0","REV_AT_EPOCH":"4129","OBJECT_TYPE":"PAYLOAD","OBJECT_NAME":"STARLINK-4416","MEAN_ELEMENT_THEORY":"SGP4","DECAY_DATE":null,"TLE_LINE2":"2 53212  97.6548 173.3376 0001993  97.1254 263.0197 15.01264684 41295","PERIAPSIS":"561.614","OBJECT_ID":"2022-084Z"},{"TLE_LINE1":"1 53213U 22084AA  23111.90131964  .00001021  00000-0  84057-4 0  9993","GP_ID":"230529076","COUNTRY_CODE":"US","SEMIMAJOR_AXIS":"6941.134","CLASSIFICATION_TYPE":"U","INCLINATION":"97.6527","ECCENTRICITY":"0.00017410","ARG_OF_PERICENTER":"101.7974","MEAN_MOTION_DOT":"0.00001021","PERIOD":"95.919","LAUNCH_DATE":"2022-07-22","CENTER_NAME":"EARTH","RCS_SIZE":"LARGE","DECAY_DATE":null,"MEAN_ELEMENT_THEORY":"SGP4","OBJECT_NAME":"STARLINK-4414","OBJECT_TYPE":"PAYLOAD","REV_AT_EPOCH":"4188","EPHEMERIS_TYPE":"0","OBJECT_ID":"2022-084AA","PERIAPSIS":"561.791","TLE_LINE2":"2 53213  97.6527 173.7794 0001741 101.7974 258.3446 15.01264090 41883","RA_OF_ASC_NODE":"173.7794","MEAN_ANOMALY":"258.3446","SITE":"AFWTR","REF_FRAME":"TEME","BSTAR":"0.00008405700000","ELEMENT_SET_NO":"999","EPOCH":"2023-04-21T21:37:54.016896","NORAD_CAT_ID":"53213","MEAN_MOTION":"15.01264090","MEAN_MOTION_DDOT":"0.0000000000000","FILE":"3891716","APOAPSIS":"564.208","TIME_SYSTEM":"UTC"},{"EPHEMERIS_TYPE":"0","REV_AT_EPOCH":"4129","OBJECT_NAME":"STARLINK-4353","OBJECT_TYPE":"PAYLOAD","MEAN_ELEMENT_THEORY":"SGP4","DECAY_DATE":null,"TLE_LINE2":"2 53214  97.6545 173.3358 0002016 102.1977 257.9473 15.01262135 41298","PERIAPSIS":"561.606","OBJECT_ID":"2022-084AB","ARG_OF_PERICENTER":"102.1977","INCLINATION":"97.6545","ECCENTRICITY":"0.00020160","CLASSIFICATION_TYPE":"U","TLE_LINE1":"1 53214U 22084AB  23111.44216064  .00000976  00000-0  80538-4 0  9996","GP_ID":"230497683","COUNTRY_CODE":"US","SEMIMAJOR_AXIS":"6941.140","RCS_SIZE":"LARGE","LAUNCH_DATE":"2022-07-22","CENTER_NAME":"EARTH","PERIOD":"95.919","MEAN_MOTION_DOT":"0.00000976","MEAN_MOTION":"15.01262135","TIME_SYSTEM":"UTC","FILE":"3891529","APOAPSIS":"564.405","MEAN_MOTION_DDOT":"0.0000000000000","MEAN_ANOMALY":"257.9473","RA_OF_ASC_NODE":"173.3358","EPOCH":"2023-04-21T10:36:42.679296","NORAD_CAT_ID":"53214","BSTAR":"0.00008053800000","ELEMENT_SET_NO":"999","SITE":"AFWTR","REF_FRAME":"TEME"},{"MEAN_MOTION_DDOT":"0.0000000000000","FILE":"3891529","APOAPSIS":"564.122","TIME_SYSTEM":"UTC","MEAN_MOTION":"15.01252304","SITE":"AFWTR","REF_FRAME":"TEME","BSTAR":"0.00003773200000","ELEMENT_SET_NO":"999","EPOCH":"2023-04-21T03:59:28.330368","NORAD_CAT_ID":"53215","RA_OF_ASC_NODE":"173.0531","MEAN_ANOMALY":"255.4964","OBJECT_ID":"2022-084AC","PERIAPSIS":"561.949","TLE_LINE2":"2 53215  97.6535 173.0531 0001565 104.6434 255.4964 15.01252304 41779","DECAY_DATE":null,"MEAN_ELEMENT_THEORY":"SGP4","OBJECT_TYPE":"PAYLOAD","OBJECT_NAME":"STARLINK-4335","REV_AT_EPOCH":"4177","EPHEMERIS_TYPE":"0","MEAN_MOTION_DOT":"0.00000426","PERIOD":"95.920","LAUNCH_DATE":"2022-07-22","CENTER_NAME":"EARTH","RCS_SIZE":"LARGE","TLE_LINE1":"1 53215U 22084AC  23111.16630012  .00000426  00000-0  37732-4 0  9997","GP_ID":"230497933","COUNTRY_CODE":"US","SEMIMAJOR_AXIS":"6941.171","CLASSIFICATION_TYPE":"U","ECCENTRICITY":"0.00015650","INCLINATION":"97.6535","ARG_OF_PERICENTER":"104.6434"},{"MEAN_MOTION_DDOT":"0.0000000000000","APOAPSIS":"564.485","FILE":"3891529","TIME_SYSTEM":"UTC","MEAN_MOTION":"15.01259057","REF_FRAME":"TEME","SITE":"AFWTR","ELEMENT_SET_NO":"999","BSTAR":"0.00001775000000","NORAD_CAT_ID":"53216","EPOCH":"2023-04-21T04:07:27.733728","RA_OF_ASC_NODE":"173.0649","MEAN_ANOMALY":"259.5696","OBJECT_ID":"2022-084AD","PERIAPSIS":"561.545","TLE_LINE2":"2 53216  97.6520 173.0649 0002118 100.5767 259.5696 15.01259057 41255","MEAN_ELEMENT_THEORY":"SGP4","DECAY_DATE":null,"OBJECT_TYPE":"PAYLOAD","OBJECT_NAME":"STARLINK-4376","REV_AT_EPOCH":"4125","EPHEMERIS_TYPE":"0","MEAN_MOTION_DOT":"0.00000169","PERIOD":"95.919","CENTER_NAME":"EARTH","LAUNCH_DATE":"2022-07-22","RCS_SIZE":"LARGE","TLE_LINE1":"1 53216U 22084AD  23111.17184877  .00000169  00000-0  17750-4 0  9994","GP_ID":"230498185","SEMIMAJOR_AXIS":"6941.150","COUNTRY_CODE":"US","CLASSIFICATION_TYPE":"U","ARG_OF_PERICENTER":"100.5767","INCLINATION":"97.6520","ECCENTRICITY":"0.00021180"},{"PERIOD":"95.919","MEAN_MOTION_DOT":"0.00000693","LAUNCH_DATE":"2022-07-22","CENTER_NAME":"EARTH","RCS_SIZE":"LARGE","GP_ID":"230528577","TLE_LINE1":"1 53217U 22084AE  23111.89600840  .00000693  00000-0  58567-4 0  9990","COUNTRY_CODE":"US","SEMIMAJOR_AXIS":"6941.137","CLASSIFICATION_TYPE":"U","INCLINATION":"97.6537","ECCENTRICITY":"0.00017010","ARG_OF_PERICENTER":"104.3139","OBJECT_ID":"2022-084AE","PERIAPSIS":"561.821","TLE_LINE2":"2 53217  97.6537 173.7710 0001701 104.3139 255.8274 15.01263208 41368","MEAN_ELEMENT_THEORY":"SGP4","DECAY_DATE":null,"OBJECT_NAME":"STARLINK-4379","OBJECT_TYPE":"PAYLOAD","REV_AT_EPOCH":"4136","EPHEMERIS_TYPE":"0","REF_FRAME":"TEME","SITE":"AFWTR","ELEMENT_SET_NO":"999","BSTAR":"0.00005856700000","NORAD_CAT_ID":"53217","EPOCH":"2023-04-21T21:30:15.125760","RA_OF_ASC_NODE":"173.7710","MEAN_ANOMALY":"255.8274","MEAN_MOTION_DDOT":"0.0000000000000","APOAPSIS":"564.183","FILE":"3891716","TIME_SYSTEM":"UTC","MEAN_MOTION":"15.01263208"},{"PERIAPSIS":"561.885","TLE_LINE2":"2 53218  97.6529 173.3237 0001620 100.8189 259.3217 15.01260766 41818","OBJECT_ID":"2022-084AF","REV_AT_EPOCH":"4181","EPHEMERIS_TYPE":"0","DECAY_DATE":null,"MEAN_ELEMENT_THEORY":"SGP4","OBJECT_NAME":"STARLINK-4384","OBJECT_TYPE":"PAYLOAD","RCS_SIZE":"LARGE","MEAN_MOTION_DOT":"0.00000072","PERIOD":"95.919","LAUNCH_DATE":"2022-07-22","CENTER_NAME":"EARTH","INCLINATION":"97.6529","ARG_OF_PERICENTER":"100.8189","ECCENTRICITY":"0.00016200","TLE_LINE1":"1 53218U 22084AF  23111.43660767  .00000072  00000-0  10203-4 0  9991","GP_ID":"230497184","SEMIMAJOR_AXIS":"6941.144","COUNTRY_CODE":"US","CLASSIFICATION_TYPE":"U","TIME_SYSTEM":"UTC","MEAN_MOTION_DDOT":"0.0000000000000","FILE":"3891529","APOAPSIS":"564.134","MEAN_MOTION":"15.01260766","BSTAR":"0.00001020300000","ELEMENT_SET_NO":"999","EPOCH":"2023-04-21T10:28:42.902688","NORAD_CAT_ID":"53218","SITE":"AFWTR","REF_FRAME":"TEME","MEAN_ANOMALY":"259.3217","RA_OF_ASC_NODE":"173.3237"},{"CENTER_NAME":"EARTH","LAUNCH_DATE":"2022-07-22","MEAN_MOTION_DOT":"0.00000444","PERIOD":"95.919","RCS_SIZE":"LARGE","CLASSIFICATION_TYPE":"U","TLE_LINE1":"1 53219U 22084AG  23111.42549820  .00000444  00000-0  39191-4 0  9997","GP_ID":"230497434","COUNTRY_CODE":"US","SEMIMAJOR_AXIS":"6941.150","INCLINATION":"97.6538","ECCENTRICITY":"0.00015210","ARG_OF_PERICENTER":"102.0827","OBJECT_ID":"2022-084AG","TLE_LINE2":"2 53219  97.6538 173.3054 0001521 102.0827 258.0567 15.01259133 41291","PERIAPSIS":"561.959","OBJECT_TYPE":"PAYLOAD","OBJECT_NAME":"STARLINK-4373","DECAY_DATE":null,"MEAN_ELEMENT_THEORY":"SGP4","EPHEMERIS_TYPE":"0","REV_AT_EPOCH":"4129","REF_FRAME":"TEME","SITE":"AFWTR","NORAD_CAT_ID":"53219","EPOCH":"2023-04-21T10:12:43.044480","ELEMENT_SET_NO":"999","BSTAR":"0.00003919100000","RA_OF_ASC_NODE":"173.3054","MEAN_ANOMALY":"258.0567","APOAPSIS":"564.070","FILE":"3891529","MEAN_MOTION_DDOT":"0.0000000000000","TIME_SYSTEM":"UTC","MEAN_MOTION":"15.01259133"},{"PERIAPSIS":"561.892","TLE_LINE2":"2 53220  97.6534 173.7724 0001595 105.9355 254.2045 15.01264154 41889","OBJECT_ID":"2022-084AH","REV_AT_EPOCH":"4188","EPHEMERIS_TYPE":"0","MEAN_ELEMENT_THEORY":"SGP4","DECAY_DATE":null,"OBJECT_TYPE":"PAYLOAD","OBJECT_NAME":"STARLINK-4363","RCS_SIZE":"LARGE","PERIOD":"95.919","MEAN_MOTION_DOT":"0.00000149","CENTER_NAME":"EARTH","LAUNCH_DATE":"2022-07-22","ECCENTRICITY":"0.00015950","INCLINATION":"97.6534","ARG_OF_PERICENTER":"105.9355","GP_ID":"230528332","TLE_LINE1":"1 53220U 22084AH  23111.89761641  .00000149  00000-0  16211-4 0  9997","COUNTRY_CODE":"US","SEMIMAJOR_AXIS":"6941.134","CLASSIFICATION_TYPE":"U","TIME_SYSTEM":"UTC","MEAN_MOTION_DDOT":"0.0000000000000","APOAPSIS":"564.106","FILE":"3891716","MEAN_MOTION":"15.01264154","ELEMENT_SET_NO":"999","BSTAR":"0.00001621100000","NORAD_CAT_ID":"53220","EPOCH":"2023-04-21T21:32:34.057824","REF_FRAME":"TEME","SITE":"AFWTR","MEAN_ANOMALY":"254.2045","RA_OF_ASC_NODE":"173.7724"}];
